{
    "links": {
        "self": "http://www.neowsapp.com/rest/v1/neo/54054606?api_key=iIulBulltgU6a56xZRHN4H3l9WmuAYTsLGpBGhQ2"
    },
    "id": "54054606",
    "neo_reference_id": "54054606",
    "name": "(2020 SG4)",
    "designation": "2020 SG4",
    "nasa_jpl_url": "http://ssd.jpl.nasa.gov/sbdb.cgi?sstr=54054606",
    "absolute_magnitude_h": 26.48,
    "estimated_diameter": {
        "kilometers": {
            "estimated_diameter_min": 0.0134448195,
            "estimated_diameter_max": 0.0300635304
        },
        "meters": {
            "estimated_diameter_min": 13.444819516,
            "estimated_diameter_max": 30.0635303831
        },
        "miles": {
            "estimated_diameter_min": 0.0083542209,
            "estimated_diameter_max": 0.0186806059
        },
        "feet": {
            "estimated_diameter_min": 44.110301661,
            "estimated_diameter_max": 98.633633022
        }
    },
    "is_potentially_hazardous_asteroid": false,
    "close_approach_data": [
        {
            "close_approach_date": "2005-10-29",
            "close_approach_date_full": "2005-Oct-29 08:54",
            "epoch_date_close_approach": 1130576040000,
            "relative_velocity": {
                "kilometers_per_second": "16.4810848283",
                "kilometers_per_hour": "59331.9053819959",
                "miles_per_hour": "36866.5386524963"
            },
            "miss_distance": {
                "astronomical": "0.4498460703",
                "lunar": "174.9901213467",
                "kilometers": "67296013.944750261",
                "miles": "41815804.0406691618"
            },
            "orbiting_body": "Earth"
        },
        {
            "close_approach_date": "2006-03-04",
            "close_approach_date_full": "2006-Mar-04 12:25",
            "epoch_date_close_approach": 1141475100000,
            "relative_velocity": {
                "kilometers_per_second": "7.5954254202",
                "kilometers_per_hour": "27343.5315125784",
                "miles_per_hour": "16990.2071223574"
            },
            "miss_distance": {
                "astronomical": "0.0742012994",
                "lunar": "28.8643054666",
                "kilometers": "11100356.341472278",
                "miles": "6897441.5919743164"
            },
            "orbiting_body": "Mars"
        },
        {
            "close_approach_date": "2020-09-23",
            "close_approach_date_full": "2020-Sep-23 06:40",
            "epoch_date_close_approach": 1600843200000,
            "relative_velocity": {
                "kilometers_per_second": "4.7440043598",
                "kilometers_per_hour": "17078.4156953025",
                "miles_per_hour": "10611.8633524506"
            },
            "miss_distance": {
                "astronomical": "0.0683623644",
                "lunar": "26.5929597516",
                "kilometers": "10226864.102403828",
                "miles": "6354678.6828677064"
            },
            "orbiting_body": "Earth"
        }
    ],
    "orbital_data": {
        "orbit_id": "4",
        "orbit_determination_date": "2020-10-08 06:55:41",
        "first_observation_date": "2020-09-11",
        "last_observation_date": "2020-10-07",
        "data_arc_in_days": 26,
        "observations_used": 26,
        "orbit_uncertainty": "7",
        "minimum_orbit_intersection": ".0597977",
        "jupiter_tisserand_invariant": "4.191",
        "epoch_osculation": "2459000.5",
        "eccentricity": ".3580621161054267",
        "semi_major_axis": "1.657312515623655",
        "inclination": "3.613580700637411",
        "ascending_node_longitude": "351.2921806019721",
        "orbital_period": "779.3006562429415",
        "perihelion_distance": "1.063891689231441",
        "perihelion_argument": "5.768208198968946",
        "aphelion_distance": "2.250733342015869",
        "perihelion_time": "2459114.178176887792",
        "mean_anomaly": "307.4860654206261",
        "mean_motion": ".4619526457677876",
        "equinox": "J2000",
        "orbit_class": {
            "orbit_class_type": "AMO",
            "orbit_class_description": "Near-Earth asteroid orbits similar to that of 1221 Amor",
            "orbit_class_range": "1.017 AU < q (perihelion) < 1.3 AU"
        }
    },
    "is_sentry_object": false
}